[{"OBJECT_NAME":"ONEWEB-0039","OBJECT_ID":"2020-008R","EPOCH":"2026-03-09T22:39:32.746464","MEAN_MOTION":13.1037353,"ECCENTRICITY":0.00012267,"INCLINATION":87.8781,"RA_OF_ASC_NODE":56.0239,"ARG_OF_PERICENTER":88.016,"MEAN_ANOMALY":272.1108,"EPHEMERIS_TYPE":0,"CLASSIFICATION_TYPE":"U","NORAD_CAT_ID":45146,"ELEMENT_SET_NO":999,"REV_AT_EPOCH":29516,"BSTAR":0.00062122786,"MEAN_MOTION_DOT":2.3e-6,"MEAN_MOTION_DDOT":0},{"OBJECT_NAME":"UNKNOWN","OBJECT_ID":"","EPOCH":"2026-03-06T03:14:31.265376","MEAN_MOTION":12.81426946,"ECCENTRICITY":0.0149171,"INCLINATION":56.4354,"RA_OF_ASC_NODE":337.3034,"ARG_OF_PERICENTER":254.5569,"MEAN_ANOMALY":103.8838,"EPHEMERIS_TYPE":0,"CLASSIFICATION_TYPE":"U","NORAD_CAT_ID":81605,"ELEMENT_SET_NO":999,"REV_AT_EPOCH":19689,"BSTAR":-0.006199,"MEAN_MOTION_DOT":-1.613e-5,"MEAN_MOTION_DDOT":0}]
